[{"OBJECT_NAME":"GJZ 02","OBJECT_ID":"2024-238B","EPOCH":"2026-03-09T22:57:25.494912","MEAN_MOTION":13.75187021,"ECCENTRICITY":0.00076974,"INCLINATION":59.9175,"RA_OF_ASC_NODE":191.0816,"ARG_OF_PERICENTER":96.9704,"MEAN_ANOMALY":263.2179,"EPHEMERIS_TYPE":0,"CLASSIFICATION_TYPE":"U","NORAD_CAT_ID":62291,"ELEMENT_SET_NO":999,"REV_AT_EPOCH":6263,"BSTAR":0.00012934225,"MEAN_MOTION_DOT":5.0e-8,"MEAN_MOTION_DDOT":0},{"OBJECT_NAME":"COSMOS 2123 & RS-12\/13","OBJECT_ID":"1991-007A","EPOCH":"2026-03-09T22:47:57.478848","MEAN_MOTION":13.7488408,"ECCENTRICITY":0.00280894,"INCLINATION":82.9212,"RA_OF_ASC_NODE":50.9902,"ARG_OF_PERICENTER":221.5089,"MEAN_ANOMALY":200.1398,"EPHEMERIS_TYPE":0,"CLASSIFICATION_TYPE":"U","NORAD_CAT_ID":21089,"ELEMENT_SET_NO":999,"REV_AT_EPOCH":76028,"BSTAR":5.6277915e-5,"MEAN_MOTION_DOT":6.9e-7,"MEAN_MOTION_DDOT":0}]
